H1 CPF 01  gfz 2022 01 13 01  5131 terrasarx 
H2 0702601  6201 31698    2022 01 13 00 59 42 2022 01 18 00 00 42   120 1 1  0 0 0
H9
10 0 59593  33102.000000  0    1337780.676   -156035.124   6744884.388
10 0 59593  33222.000000  0    1913498.945   -847964.774   6552303.604
10 0 59593  33342.000000  0    2443763.973  -1534775.550   6244571.223
10 0 59593  33462.000000  0    2919512.145  -2203599.127   5827063.284
10 0 59593  33582.000000  0    3332847.057  -2841723.531   5307082.861
10 0 59593  33702.000000  0    3677173.851  -3436836.561   4693738.329
10 0 59593  33822.000000  0    3947308.698  -3977266.897   3997789.408
10 0 59593  33942.000000  0    4139560.805  -4452217.888   3231461.884
10 0 59593  34062.000000  0    4251784.448  -4851988.801   2408234.051
10 0 59593  34182.000000  0    4283400.320  -5168178.061   1542597.593
10 0 59593  34302.000000  0    4235384.491  -5393862.957    649797.413
10 0 59593  34422.000000  0    4110224.874  -5523750.763   -254443.911
10 0 59593  34542.000000  0    3911848.138  -5554298.840  -1154210.478
10 0 59593  34662.000000  0    3645516.429  -5483799.964  -2033683.034
10 0 59593  34782.000000  0    3317697.450  -5312429.175  -2877424.385
10 0 59593  34902.000000  0    2935912.498  -5042253.154  -3670656.163
10 0 59593  35022.000000  0    2508564.739  -4677201.314  -4399520.038
10 0 59593  35142.000000  0    2044753.250  -4223000.529  -5051317.964
10 0 59593  35262.000000  0    1554078.856  -3687075.146  -5614727.133
10 0 59593  35382.000000  0    1046446.289  -3078417.051  -6079987.079
10 0 59593  35502.000000  0     531865.466  -2407428.995  -6439058.316
10 0 59593  35622.000000  0      20256.162  -1685742.835  -6685750.437
10 0 59593  35742.000000  0    -478739.307   -926016.602  -6815818.257
10 0 59593  35862.000000  0    -955932.586   -141714.429  -6827026.782
10 0 59593  35982.000000  0   -1402754.209    653127.201  -6719184.633
10 0 59593  36102.000000  0   -1811403.998   1444144.027  -6494146.554
10 0 59593  36222.000000  0   -2174983.945   2216897.202  -6155784.786
10 0 59593  36342.000000  0   -2487613.606   2957130.893  -5709930.714
10 0 59593  36462.000000  0   -2744525.778   3651032.758  -5164284.728
10 0 59593  36582.000000  0   -2942141.124   4285492.046  -4528295.186
10 0 59593  36702.000000  0   -3078120.293   4848351.258  -3813005.070
10 0 59593  36822.000000  0   -3151390.695   5328644.306  -3030868.101
10 0 59593  36942.000000  0   -3162148.129   5716816.741  -2195539.496
10 0 59593  37062.000000  0   -3111833.927   6004925.797  -1321641.517
10 0 59593  37182.000000  0   -3003084.849   6186811.629   -424505.781
10 0 59593  37302.000000  0   -2839659.189   6258234.458    480098.660
10 0 59593  37422.000000  0   -2626340.883   6216978.040   1376250.258
10 0 59593  37542.000000  0   -2368819.043   6062909.735   2248166.971
10 0 59593  37662.000000  0   -2073549.040   5797996.356   3080493.330
10 0 59593  37782.000000  0   -1747600.179   5426278.386   3858577.482
10 0 59593  37902.000000  0   -1398493.407   4953803.467   4568733.783
10 0 59593  38022.000000  0   -1034032.317   4388520.244   5198486.169
10 0 59593  38142.000000  0    -662130.824   3740135.356   5736786.219
10 0 59593  38262.000000  0    -290644.493   3019938.429   6174203.449
10 0 59593  38382.000000  0      72793.067   2240597.508   6503085.064
10 0 59593  38502.000000  0     420924.792   1415931.660   6717683.587
10 0 59593  38622.000000  0     747013.506    560662.461   6814251.814
10 0 59593  38742.000000  0    1044970.758   -309849.154   6791103.048
10 0 59593  38862.000000  0    1309469.575  -1179877.607   6648639.788
10 0 59593  38982.000000  0    1536039.637  -2033616.415   6389347.517
10 0 59593  39102.000000  0    1721143.187  -2855465.148   6017754.723
10 0 59593  39222.000000  0    1862230.561  -3630316.299   5540358.588
10 0 59593  39342.000000  0    1957774.125  -4343836.088   4965516.345
10 0 59593  39462.000000  0    2007280.694  -4982733.332   4303304.650
10 0 59593  39582.000000  0    2011283.117  -5535014.812   3565348.986
10 0 59593  39702.000000  0    1971308.760  -5990220.026   2764620.962
10 0 59593  39822.000000  0    1889825.298  -6339627.528   1915209.380
10 0 59593  39942.000000  0    1770167.676  -6576429.571   1032069.842
10 0 59593  40062.000000  0    1616445.723  -6695871.673    130756.242
10 0 59593  40182.000000  0    1433434.682  -6695353.083   -772860.701
10 0 59593  40302.000000  0    1226450.948  -6574482.933  -1662884.696
10 0 59593  40422.000000  0    1001216.390  -6335088.285  -2523681.956
10 0 59593  40542.000000  0     763716.257  -5981178.958  -3340161.822
10 0 59593  40662.000000  0     520055.614  -5518869.668  -4098044.502
10 0 59593  40782.000000  0     276314.793  -4956261.892  -4784110.684
10 0 59593  40902.000000  0      38408.707  -4303289.161  -5386427.373
10 0 59593  41022.000000  0    -188046.452  -3571530.828  -5894547.986
10 0 59593  41142.000000  0    -397856.521  -2773997.807  -6299683.502
10 0 59593  41262.000000  0    -586360.242  -1924895.970  -6594843.107
10 0 59593  41382.000000  0    -749526.059  -1039371.841  -6774943.490
10 0 59593  41502.000000  0    -884033.175   -133244.961  -6836887.731
10 0 59593  41622.000000  0    -987335.566    777270.100  -6779611.981
10 0 59593  41742.000000  0   -1057708.552   1675846.237  -6604101.089
10 0 59593  41862.000000  0   -1094277.157   2546329.131  -6313373.308
10 0 59593  41982.000000  0   -1097025.712   3373021.202  -5912435.308
10 0 59593  42102.000000  0   -1066789.073   4140962.337  -5408205.399
10 0 59593  42222.000000  0   -1005224.760   4836200.718  -4809405.165
10 0 59593  42342.000000  0    -914767.191   5446051.184  -4126420.120
10 0 59593  42462.000000  0    -798564.147   5959334.655  -3371128.855
10 0 59593  42582.000000  0    -660396.295   6366592.904  -2556703.914
10 0 59593  42702.000000  0    -504581.332   6660275.144  -1697386.888
10 0 59593  42822.000000  0    -335865.153   6834890.320   -808239.851
10 0 59593  42942.000000  0    -159301.760   6887121.047     95121.248
10 0 59593  43062.000000  0      19875.147   6815895.735    996806.971
10 0 59593  43182.000000  0     196384.967   6622415.612   1880943.203
10 0 59593  43302.000000  0     365033.422   6310133.833   2731960.244
10 0 59593  43422.000000  0     520843.152   5884689.625   3534873.888
10 0 59593  43542.000000  0     659179.255   5353800.856   4275554.454
10 0 59593  43662.000000  0     775866.785   4727117.680   4940982.297
10 0 59593  43782.000000  0     867294.660   4016031.394   5519477.714
10 0 59593  43902.000000  0     930507.385   3233459.006   6000900.381
10 0 59593  44022.000000  0     963280.646   2393600.933   6376823.225
10 0 59593  44142.000000  0     964178.594   1511677.179   6640674.184
10 0 59593  44262.000000  0     932593.208    603647.376   6787845.152
10 0 59593  44382.000000  0     868764.713   -314078.815   6815766.409
10 0 59593  44502.000000  0     773782.526  -1224936.907   6723949.797
10 0 59593  44622.000000  0     649566.562  -2112506.628   6513997.378
10 0 59593  44742.000000  0     498829.110  -2960807.932   6189575.808
10 0 59593  44862.000000  0     325017.910  -3754590.918   5756355.047
10 0 59593  44982.000000  0     132242.114  -4479610.769   5221912.715
10 0 59593  45102.000000  0     -74817.328  -5122886.633   4595608.969
10 0 59593  45222.000000  0    -291012.338  -5672942.782   3888430.173
10 0 59593  45342.000000  0    -510846.507  -6120024.009   3112799.153
10 0 59593  45462.000000  0    -728604.387  -6456278.804   2282357.596
10 0 59593  45582.000000  0    -938487.083  -6675905.980   1411723.848
10 0 59593  45702.000000  0   -1134752.706  -6775264.039    516231.750
10 0 59593  45822.000000  0   -1311858.421  -6752936.568   -388348.632
10 0 59593  45942.000000  0   -1464597.802  -6609750.955  -1286098.048
10 0 59593  46062.000000  0   -1588231.219  -6348752.342  -2161236.595
10 0 59593  46182.000000  0   -1678606.601  -5975133.983  -2998408.070
10 0 59593  46302.000000  0   -1732267.566  -5496125.259  -3782954.794
10 0 59593  46422.000000  0   -1746545.712  -4920839.945  -4501176.012
10 0 59593  46542.000000  0   -1719634.913  -4260090.537  -5140564.024
10 0 59593  46662.000000  0   -1650646.783  -3526174.732  -5690015.245
10 0 59593  46782.000000  0   -1539646.210  -2732638.767  -6140014.243
10 0 59593  46902.000000  0   -1387666.291  -1894021.853  -6482788.250
10 0 59593  47022.000000  0   -1196702.954  -1025587.774  -6712429.526
10 0 59593  47142.000000  0    -969690.175   -143049.220  -6824986.640
10 0 59593  47262.000000  0    -710455.455    737711.578  -6818524.566
10 0 59593  47382.000000  0    -423655.829   1600921.282  -6693153.831
10 0 59593  47502.000000  0    -114696.884   2431190.421  -6451028.713
10 0 59593  47622.000000  0     210365.223   3213781.748  -6096315.917
10 0 59593  47742.000000  0     544939.077   3934869.649  -5635131.176
10 0 59593  47862.000000  0     882026.900   4581783.841  -5075443.171
10 0 59593  47982.000000  0    1214365.436   5143235.672  -4426947.914
10 0 59593  48102.000000  0    1534577.401   5609523.072  -3700911.346
10 0 59593  48222.000000  0    1835329.910   5972707.758  -2909982.079
10 0 59593  48342.000000  0    2109496.532   6226762.039  -2067977.337
10 0 59593  48462.000000  0    2350319.708   6367681.268  -1189643.644
10 0 59593  48582.000000  0    2551569.135   6393557.088   -290396.022
10 0 59593  48702.000000  0    2707691.873   6304608.618    613958.099
10 0 59593  48822.000000  0    2813950.149   6103171.015   1507503.765
10 0 59593  48942.000000  0    2866543.294   5793642.042   2374506.635
10 0 59593  49062.000000  0    2862711.031   5382387.390   3199698.194
10 0 59593  49182.000000  0    2800815.567   4877606.794   3968551.977
10 0 59593  49302.000000  0    2680400.166   4289165.334   4667545.333
10 0 59593  49422.000000  0    2502220.337   3628390.835   5284401.193
10 0 59593  49542.000000  0    2268249.640   2907846.365   5808300.249
99
